OBJECT_NAME,OBJECT_ID,EPOCH,MEAN_MOTION,ECCENTRICITY,INCLINATION,RA_OF_ASC_NODE,ARG_OF_PERICENTER,MEAN_ANOMALY,EPHEMERIS_TYPE,CLASSIFICATION_TYPE,NORAD_CAT_ID,ELEMENT_SET_NO,REV_AT_EPOCH,BSTAR,MEAN_MOTION_DOT,MEAN_MOTION_DDOT
IONOSFERA-M 2,2024-199B,2026-07-20T21:56:14.502336,14.22763235,.00007198,98.7126,74.6335,130.6754,229.4486,0,U,61736,999,13562,.25231294E-4,.13E-6,0
PRSC-EO1,2025-012A,2026-07-20T22:46:55.432416,15.17663483,.00071592,97.4208,273.7463,130.4584,229.7275,0,U,62725,999,8331,.2375283E-3,.4719E-4,0
BIOMASS,2025-090A,2026-07-20T12:19:44.229504,14.67536383,.00014427,98.0754,28.3438,90.1809,269.9561,0,U,63772,999,6557,.73818358E-4,.371E-5,0
GOSAT-GW (IBUKI GW),2025-141A,2026-07-20T22:33:33.522048,14.67554607,.00014257,98.0564,138.7087,85.8658,274.2710,0,U,64694,999,5679,.9501866E-5,.6E-7,0
IONOSFERA-M 3,2025-155A,2026-07-20T21:23:52.135296,14.21491480,.00024215,98.6045,162.9518,103.7724,256.3723,0,U,64876,999,5119,.32037618E-4,.27E-6,0
IONOSFERA-M 4,2025-155B,2026-07-20T22:13:57.409824,14.21493922,.00018869,98.6044,162.9028,93.6080,266.5313,0,U,64877,999,5119,.34804193E-4,.33E-6,0
MICROCARB,2025-156A,2026-07-20T18:45:18.220896,14.72888820,.00180407,98.0070,278.4049,153.4530,206.7605,0,U,64899,999,5291,.51268231E-4,.279E-5,0
CO3D 3,2025-156B,2026-07-20T21:20:00.925440,15.20198684,.00017276,97.4331,280.0977,90.4098,269.7335,0,U,64900,999,5465,.1350853E-3,.2858E-4,0
CO3D 4,2025-156C,2026-07-20T21:20:14.206848,15.20194972,.00019388,97.4337,280.0977,142.0996,218.0376,0,U,64901,999,5465,.10101418E-3,.2119E-4,0
CO3D 2,2025-156D,2026-07-20T22:07:00.291360,15.20204133,.00011851,97.4332,280.0285,92.0919,268.0452,0,U,64902,999,5465,.12443655E-3,.2627E-4,0
CO3D 1,2025-156E,2026-07-20T22:07:13.529568,15.20206651,.00013367,97.4332,280.0288,102.2010,257.9375,0,U,64903,999,5465,.13594121E-3,.2877E-4,0
PRSC-S1,2025-164A,2026-07-20T22:34:03.259200,15.06666299,.00074983,41.1302,97.6789,232.4302,127.5831,0,U,65055,999,5352,.21965893E-3,.3141E-4,0
SENTINEL-6B,2025-264A,2026-07-20T21:25:30.115488,12.80930278,.00078388,66.0410,65.1724,268.4908,91.5209,0,U,66514,999,3148,.4500148E-5,-.6E-6,0
CAS500-3,2025-274F,2026-07-20T18:18:20.598624,14.88391224,.00058111,97.7433,129.0502,22.2923,337.8545,0,U,66655,999,3514,.74906058E-4,.64E-5,0
CSG-3,2026-001A,2026-07-20T09:56:29.192064,14.82165425,.00014691,97.8898,24.5366,93.0499,267.0882,0,U,67304,999,2938,.2542272E-4,.15E-5,0
PRSC-E03,2026-092A,2026-07-20T10:57:30.044736,15.06821808,.00050069,38.0004,253.4742,283.2867,76.7337,0,U,68835,999,1297,.77984655E-4,.1074E-4,0
CAS500-2,2026-100AK,2026-07-20T17:05:52.503936,15.19760392,.00081268,97.3850,98.9199,230.8249,129.2264,0,U,69013,999,1190,.15845192E-3,.3323E-4,0
